OBJECT_NAME,OBJECT_ID,EPOCH,MEAN_MOTION,ECCENTRICITY,INCLINATION,RA_OF_ASC_NODE,ARG_OF_PERICENTER,MEAN_ANOMALY,EPHEMERIS_TYPE,CLASSIFICATION_TYPE,NORAD_CAT_ID,ELEMENT_SET_NO,REV_AT_EPOCH,BSTAR,MEAN_MOTION_DOT,MEAN_MOTION_DDOT
STARLINK-2257,2021-018A,2026-07-14T18:26:27.631968,15.31710442,.0000943,53.1614,14.4208,69.4446,290.6656,0,U,47787,999,29615,.51463E-4,.1233E-4,0
STARLINK-2314,2021-018B,2026-07-14T15:53:56.848128,15.42596947,.000114,53.1551,344.4040,129.3069,230.8038,0,U,47788,999,29658,.73921E-3,.32366E-3,0
STARLINK-2315,2021-018C,2026-07-14T16:30:10.544256,15.31707137,.0000949,53.1612,8.4068,79.7478,280.3631,0,U,47789,999,29622,.31755E-4,.621E-5,0
STARLINK-2319,2021-018D,2026-07-14T17:02:11.897088,15.31721293,.0001394,53.1621,345.6828,42.9836,317.1274,0,U,47790,999,29656,.56841E-4,.14E-4,0
STARLINK-2322,2021-018E,2026-07-14T19:26:20.541408,15.31702064,.0001276,53.1609,11.4517,80.0015,280.1130,0,U,47791,999,29621,.22949E-4,.347E-5,0
STARLINK-2334,2021-018F,2026-07-14T17:50:40.655040,15.31706737,.0001358,53.1618,7.9802,61.3065,298.8073,0,U,47792,999,29623,.39147E-4,.85E-5,0
STARLINK-2338,2021-018G,2026-07-14T16:36:50.844096,15.31709948,.0001147,53.1610,8.2162,80.2510,279.8621,0,U,47793,999,29621,.31807E-4,.622E-5,0
STARLINK-2373,2021-018K,2026-07-14T18:48:06.503040,15.36853759,.0000734,53.1575,6.5718,180.0670,180.0334,0,U,47796,999,29625,.1003E-2,.36449E-3,0
STARLINK-2377,2021-018L,2026-07-14T20:10:56.683776,15.31708631,.0001229,53.1610,23.7711,80.7712,279.3429,0,U,47797,999,29602,.75651E-4,.1984E-4,0
STARLINK-2379,2021-018M,2026-07-14T17:03:41.878368,15.31722769,.0001304,53.1609,8.1329,78.9598,281.1550,0,U,47798,999,29622,.11824E-3,.3308E-4,0
STARLINK-2380,2021-018N,2026-07-14T17:28:13.660896,15.31710653,.0001179,53.1603,1.0523,88.3726,271.7411,0,U,47799,999,29632,.69381E-4,.1789E-4,0
STARLINK-2381,2021-018P,2026-07-14T17:17:06.570816,15.31704807,.0001263,53.1621,8.0024,88.6706,271.4440,0,U,47800,999,29622,.16797E-4,.156E-5,0
STARLINK-2383,2021-018R,2026-07-14T19:50:54.043296,15.31709820,.0001161,53.1609,24.3060,98.4688,261.6446,0,U,47802,999,29602,.31652E-4,.617E-5,0
STARLINK-2385,2021-018T,2026-07-14T18:34:57.493056,15.31706504,.0001149,53.1611,358.8693,79.9080,280.2051,0,U,47804,999,29636,.45646E-4,.1052E-4,0
STARLINK-2386,2021-018U,2026-07-14T18:33:15.041664,15.24918322,.0002367,53.0864,12.3925,191.5385,168.5559,0,U,47805,999,29616,.84324E-3,.20987E-3,0
STARLINK-2387,2021-018V,2026-07-14T18:46:04.050048,15.31707747,.0000886,53.1587,11.6352,94.9309,265.1794,0,U,47806,999,29625,-.63167E-4,-.2325E-4,0
STARLINK-2388,2021-018W,2026-07-14T17:08:54.845952,15.31715078,.0001187,53.1605,345.6703,92.7501,267.3637,0,U,47807,999,29654,.32409E-5,-.265E-5,0
STARLINK-2389,2021-018X,2026-07-14T18:32:06.542016,15.31711330,.0000975,53.1618,11.3447,80.8053,279.3059,0,U,47808,999,29625,.38883E-4,.842E-5,0
STARLINK-2391,2021-018Z,2026-07-14T19:17:18.549888,15.31712342,.0001361,53.1618,24.2688,98.4863,261.6293,0,U,47810,999,29607,.60098E-4,.1501E-4,0
STARLINK-2395,2021-018AD,2026-07-14T19:06:11.007072,15.31703307,.0001271,53.1604,11.4116,79.6080,280.5065,0,U,47814,999,29626,.32671E-4,.649E-5,0
STARLINK-2396,2021-018AE,2026-07-14T17:25:28.774272,15.31695633,.0001262,53.1594,11.6082,103.4791,256.6351,0,U,47815,999,29618,-.27511E-4,-.1219E-4,0
STARLINK-2399,2021-018AF,2026-07-14T19:11:33.920160,15.31714158,.0001115,53.1607,26.7617,94.4213,265.6916,0,U,47816,999,29596,.8217E-4,.2187E-4,0
STARLINK-2400,2021-018AG,2026-07-14T18:05:50.047008,15.31710077,.0001175,53.1617,11.9148,83.4414,276.6721,0,U,47817,999,29618,.48641E-4,.1145E-4,0
STARLINK-2402,2021-018AJ,2026-07-14T17:59:06.216864,15.31710934,.0001205,53.1613,11.8486,101.4793,258.6344,0,U,47819,999,29625,.11261E-3,.3132E-4,0
STARLINK-2406,2021-018AL,2026-07-14T16:38:30.903072,15.31732100,.0001129,53.1598,11.9833,100.8810,259.2319,0,U,47821,999,29618,-.15524E-3,-.5184E-4,0
STARLINK-2407,2021-018AM,2026-07-14T19:30:39.737952,15.31708906,.0001332,53.1600,23.8041,103.6486,256.4664,0,U,47822,999,29603,.95691E-4,.2606E-4,0
STARLINK-2408,2021-018AN,2026-07-14T19:04:50.217024,15.31699587,.0001495,53.1621,26.6567,70.5346,289.5817,0,U,47823,999,29597,.30358E-4,.577E-5,0
STARLINK-2409,2021-018AP,2026-07-14T20:18:18.700128,15.31700221,.0001258,53.1591,27.0829,88.3501,271.7645,0,U,47824,999,29596,-.26227E-4,-.1179E-4,0
STARLINK-2410,2021-018AQ,2026-07-14T17:18:48.142656,15.31707569,.0000993,53.1616,11.7751,96.0553,264.0561,0,U,47825,999,29619,.2011E-4,.259E-5,0
STARLINK-2411,2021-018AR,2026-07-14T18:33:06.838848,15.31711889,.0001266,53.1626,14.0875,91.1786,268.9360,0,U,47826,999,29616,.5071E-4,.1209E-4,0
