[ {"name": "STARLINK-2257", "line1": "1 47787U 21018A   26195.76837537  .00001233  00000+0  51463-4 0  9995", "line2": "2 47787  53.1614  14.4208 0000943  69.4446 290.6656 15.31710442296158"}, {"name": "STARLINK-2314", "line1": "1 47788U 21018B   26195.66246352  .00032366  00000+0  73921-3 0  9997", "line2": "2 47788  53.1551 344.4040 0001140 129.3069 230.8038 15.42596947296587"}, {"name": "STARLINK-2315", "line1": "1 47789U 21018C   26195.68762204  .00000621  00000+0  31755-4 0  9998", "line2": "2 47789  53.1612   8.4068 0000949  79.7478 280.3631 15.31707137296224"}, {"name": "STARLINK-2319", "line1": "1 47790U 21018D   26195.70985992  .00001400  00000+0  56841-4 0  9993", "line2": "2 47790  53.1621 345.6828 0001394  42.9836 317.1274 15.31721293296569"}, {"name": "STARLINK-2322", "line1": "1 47791U 21018E   26195.80995997  .00000347  00000+0  22949-4 0  9992", "line2": "2 47791  53.1609  11.4517 0001276  80.0015 280.1130 15.31702064296217"}, {"name": "STARLINK-2334", "line1": "1 47792U 21018F   26195.74352610  .00000850  00000+0  39147-4 0  9992", "line2": "2 47792  53.1618   7.9802 0001358  61.3065 298.8073 15.31706737296238"}, {"name": "STARLINK-2338", "line1": "1 47793U 21018G   26195.69225514  .00000622  00000+0  31807-4 0  9991", "line2": "2 47793  53.1610   8.2162 0001147  80.2510 279.8621 15.31709948296218"}, {"name": "STARLINK-2373", "line1": "1 47796U 21018K   26195.78340860  .00036449  00000+0  10030-2 0  9995", "line2": "2 47796  53.1575   6.5718 0000734 180.0670 180.0334 15.36853759296259"}, {"name": "STARLINK-2377", "line1": "1 47797U 21018L   26195.84093384  .00001984  00000+0  75651-4 0  9997", "line2": "2 47797  53.1610  23.7711 0001229  80.7712 279.3429 15.31708631296022"}, {"name": "STARLINK-2379", "line1": "1 47798U 21018M   26195.71090137  .00003308  00000+0  11824-3 0  9990", "line2": "2 47798  53.1609   8.1329 0001304  78.9598 281.1550 15.31722769296224"}, {"name": "STARLINK-2380", "line1": "1 47799U 21018N   26195.72793589  .00001789  00000+0  69381-4 0  9996", "line2": "2 47799  53.1603   1.0523 0001179  88.3726 271.7411 15.31710653296326"}, {"name": "STARLINK-2381", "line1": "1 47800U 21018P   26195.72021494  .00000156  00000+0  16797-4 0  9998", "line2": "2 47800  53.1621   8.0024 0001263  88.6706 271.4440 15.31704807296229"}, {"name": "STARLINK-2383", "line1": "1 47802U 21018R   26195.82701439  .00000617  00000+0  31652-4 0  9994", "line2": "2 47802  53.1609  24.3060 0001161  98.4688 261.6446 15.31709820296028"}, {"name": "STARLINK-2385", "line1": "1 47804U 21018T   26195.77427654  .00001052  00000+0  45646-4 0  9996", "line2": "2 47804  53.1611 358.8693 0001149  79.9080 280.2051 15.31706504296368"}, {"name": "STARLINK-2386", "line1": "1 47805U 21018U   26195.77309076  .00020987  00000+0  84324-3 0  9997", "line2": "2 47805  53.0864  12.3925 0002367 191.5385 168.5559 15.24918322296164"}, {"name": "STARLINK-2387", "line1": "1 47806U 21018V   26195.78199132 -.00002325  00000+0 -63167-4 0  9990", "line2": "2 47806  53.1587  11.6352 0000886  94.9309 265.1794 15.31707747296250"}, {"name": "STARLINK-2388", "line1": "1 47807U 21018W   26195.71452368 -.00000265  00000+0  32409-5 0  9993", "line2": "2 47807  53.1605 345.6703 0001187  92.7501 267.3637 15.31715078296545"}, {"name": "STARLINK-2389", "line1": "1 47808U 21018X   26195.77229794  .00000842  00000+0  38883-4 0  9996", "line2": "2 47808  53.1618  11.3447 0000975  80.8053 279.3059 15.31711330296252"}, {"name": "STARLINK-2391", "line1": "1 47810U 21018Z   26195.80368692  .00001501  00000+0  60098-4 0  9990", "line2": "2 47810  53.1618  24.2688 0001361  98.4863 261.6293 15.31712342296077"}, {"name": "STARLINK-2395", "line1": "1 47814U 21018AD  26195.79596073  .00000649  00000+0  32671-4 0  9996", "line2": "2 47814  53.1604  11.4116 0001271  79.6080 280.5065 15.31703307296261"}, {"name": "STARLINK-2396", "line1": "1 47815U 21018AE  26195.72602748 -.00001219  00000+0 -27511-4 0  9990", "line2": "2 47815  53.1594  11.6082 0001262 103.4791 256.6351 15.31695633296184"}, {"name": "STARLINK-2399", "line1": "1 47816U 21018AF  26195.79969815  .00002187  00000+0  82170-4 0  9994", "line2": "2 47816  53.1607  26.7617 0001115  94.4213 265.6916 15.31714158295962"}, {"name": "STARLINK-2400", "line1": "1 47817U 21018AG  26195.75405147  .00001145  00000+0  48641-4 0  9992", "line2": "2 47817  53.1617  11.9148 0001175  83.4414 276.6721 15.31710077296183"}, {"name": "STARLINK-2402", "line1": "1 47819U 21018AJ  26195.74937751  .00003132  00000+0  11261-3 0  9999", "line2": "2 47819  53.1613  11.8486 0001205 101.4793 258.6344 15.31710934296251"}, {"name": "STARLINK-2406", "line1": "1 47821U 21018AL  26195.69341323 -.00005184  00000+0 -15524-3 0  9997", "line2": "2 47821  53.1598  11.9833 0001129 100.8810 259.2319 15.31732100296181"}, {"name": "STARLINK-2407", "line1": "1 47822U 21018AM  26195.81295993  .00002606  00000+0  95691-4 0  9991", "line2": "2 47822  53.1600  23.8041 0001332 103.6486 256.4664 15.31708906296038"}, {"name": "STARLINK-2408", "line1": "1 47823U 21018AN  26195.79502566  .00000577  00000+0  30358-4 0  9990", "line2": "2 47823  53.1621  26.6567 0001495  70.5346 289.5817 15.31699587295976"}, {"name": "STARLINK-2409", "line1": "1 47824U 21018AP  26195.84604977 -.00001179  00000+0 -26227-4 0  9997", "line2": "2 47824  53.1591  27.0829 0001258  88.3501 271.7645 15.31700221295965"}, {"name": "STARLINK-2410", "line1": "1 47825U 21018AQ  26195.72139054  .00000259  00000+0  20110-4 0  9995", "line2": "2 47825  53.1616  11.7751 0000993  96.0553 264.0561 15.31707569296196"}, {"name": "STARLINK-2411", "line1": "1 47826U 21018AR  26195.77299582  .00001209  00000+0  50710-4 0  9999", "line2": "2 47826  53.1626  14.0875 0001266  91.1786 268.9360 15.31711889296166"}]